ONEWEB-0662             
1 55822U 23029AC  25251.25615834  .00000536  00000+0  14100-2 0  9998
2 55822  87.9089 345.8914 0001518 102.1160 258.0140 13.14503235122399
ONEWEB-0663             
1 55823U 23029AD  25251.21397856  .00000137  00000+0  30391-3 0  9994
2 55823  87.9301 330.6910 0001522  90.7887 269.3421 13.20845903123923
ONEWEB-0664             
1 55824U 23029AE  25251.22468618  .00000047  00000+0  84914-4 0  9992
2 55824  87.9287 330.7092 0002100  89.1630 270.9744 13.20770582123926
ONEWEB-0665             
1 55825U 23029AF  25251.21809233 -.00000105  00000+0 -31764-3 0  9995
2 55825  87.9099 345.8678 0001632  94.1585 265.9731 13.14503826122364
ONEWEB-0666             
1 55826U 23029AG  25251.21837577  .00000026  00000+0  31690-4 0  9997
2 55826  87.9284 330.6985 0002426 113.8133 246.3255 13.20771450123939
ONEWEB-0667             
1 55827U 23029AH  25251.21205632  .00000136  00000+0  30195-3 0  9999
2 55827  87.9287 330.6275 0001797  93.4679 266.6660 13.20771032123923
ONEWEB-0669             
1 55828U 23029AJ  25251.20731289 -.00000224  00000+0 -58342-3 0  9995
2 55828  87.9290 330.6677 0002624  94.9737 265.1696 13.20771545123927
ONEWEB-0670             
1 55829U 23029AK  25251.27201947  .00000097  00000+0  22732-3 0  9996
2 55829  87.9097 345.8772 0001870  87.2433 272.8911 13.14502889122398
ONEWEB-0671             
1 55830U 23029AL  25251.25247762  .00000114  00000+0  25224-3 0  9990
2 55830  87.9279   1.0424 0001737  93.3864 266.7467 13.19723874121712
ONEWEB-0672             
1 55831U 23029AM  25251.27834383  .00000012  00000+0 -14724-5 0  9997
2 55831  87.9285 330.6372 0002176 103.2342 256.9034 13.20773559123937
ONEWEB-0673             
1 55832U 23029AN  25251.22878401  .00000075  00000+0  15395-3 0  9993
2 55832  87.9290   1.0134 0001601 100.6081 259.5232 13.19724969121714
ONEWEB-0674             
1 55833U 23029AP  25251.24029575  .00000178  00000+0  44689-3 0  9998
2 55833  87.9093 345.8667 0002002  85.9826 274.1533 13.14505128122373
ONEWEB-0675             
1 55834U 23029AQ  25251.24457941  .00000133  00000+0  30032-3 0  9999
2 55834  87.9279   1.0549 0001858 109.8511 250.2822 13.19724843121732
ONEWEB-0720             
1 55835U 23029AR  25251.23669190  .00000128  00000+0  28773-3 0  9993
2 55835  87.9279   1.0531 0001421  93.7255 266.4040 13.19726172121655
ONEWEB-0537             
1 56046U 23043A   25251.16987533 -.00000048  00000+0 -15850-3 0  9995
2 56046  87.9003 284.9734 0002011  98.9084 261.2274 13.16595811121850
ONEWEB-0538             
1 56047U 23043B   25251.16355231  .00000062  00000+0  12947-3 0  9998
2 56047  87.8993 284.9871 0001726 101.3809 258.7516 13.16594568121865
