[{"OBJECT_NAME":"ONEWEB-0662","OBJECT_ID":"2023-029AC","EPOCH":"2025-09-08T06:08:52.080576","MEAN_MOTION":13.14503235,"ECCENTRICITY":0.0001518,"INCLINATION":87.9089,"RA_OF_ASC_NODE":345.8914,"ARG_OF_PERICENTER":102.116,"MEAN_ANOMALY":258.014,"EPHEMERIS_TYPE":0,"CLASSIFICATION_TYPE":"U","NORAD_CAT_ID":55822,"ELEMENT_SET_NO":999,"REV_AT_EPOCH":12239,"BSTAR":0.0014099851,"MEAN_MOTION_DOT":5.36e-6,"MEAN_MOTION_DDOT":0},{"OBJECT_NAME":"ONEWEB-0663","OBJECT_ID":"2023-029AD","EPOCH":"2025-09-08T05:08:07.747584","MEAN_MOTION":13.20845903,"ECCENTRICITY":0.00015229,"INCLINATION":87.9301,"RA_OF_ASC_NODE":330.691,"ARG_OF_PERICENTER":90.7887,"MEAN_ANOMALY":269.3421,"EPHEMERIS_TYPE":0,"CLASSIFICATION_TYPE":"U","NORAD_CAT_ID":55823,"ELEMENT_SET_NO":999,"REV_AT_EPOCH":12392,"BSTAR":0.00030390809,"MEAN_MOTION_DOT":1.37e-6,"MEAN_MOTION_DDOT":0},{"OBJECT_NAME":"ONEWEB-0664","OBJECT_ID":"2023-029AE","EPOCH":"2025-09-08T05:23:32.885952","MEAN_MOTION":13.20770582,"ECCENTRICITY":0.00021003,"INCLINATION":87.9287,"RA_OF_ASC_NODE":330.7092,"ARG_OF_PERICENTER":89.163,"MEAN_ANOMALY":270.9744,"EPHEMERIS_TYPE":0,"CLASSIFICATION_TYPE":"U","NORAD_CAT_ID":55824,"ELEMENT_SET_NO":999,"REV_AT_EPOCH":12392,"BSTAR":8.4913638e-5,"MEAN_MOTION_DOT":4.7e-7,"MEAN_MOTION_DDOT":0},{"OBJECT_NAME":"ONEWEB-0665","OBJECT_ID":"2023-029AF","EPOCH":"2025-09-08T05:14:03.177312","MEAN_MOTION":13.14503826,"ECCENTRICITY":0.00016322,"INCLINATION":87.9099,"RA_OF_ASC_NODE":345.8678,"ARG_OF_PERICENTER":94.1585,"MEAN_ANOMALY":265.9731,"EPHEMERIS_TYPE":0,"CLASSIFICATION_TYPE":"U","NORAD_CAT_ID":55825,"ELEMENT_SET_NO":999,"REV_AT_EPOCH":12236,"BSTAR":-0.00031764489,"MEAN_MOTION_DOT":-1.05e-6,"MEAN_MOTION_DDOT":0},{"OBJECT_NAME":"ONEWEB-0666","OBJECT_ID":"2023-029AG","EPOCH":"2025-09-08T05:14:27.666528","MEAN_MOTION":13.2077145,"ECCENTRICITY":0.00024268,"INCLINATION":87.9284,"RA_OF_ASC_NODE":330.6985,"ARG_OF_PERICENTER":113.8133,"MEAN_ANOMALY":246.3255,"EPHEMERIS_TYPE":0,"CLASSIFICATION_TYPE":"U","NORAD_CAT_ID":55826,"ELEMENT_SET_NO":999,"REV_AT_EPOCH":12393,"BSTAR":3.1690242e-5,"MEAN_MOTION_DOT":2.6e-7,"MEAN_MOTION_DDOT":0},{"OBJECT_NAME":"ONEWEB-0667","OBJECT_ID":"2023-029AH","EPOCH":"2025-09-08T05:05:21.666048","MEAN_MOTION":13.20771032,"ECCENTRICITY":0.00017971,"INCLINATION":87.9287,"RA_OF_ASC_NODE":330.6275,"ARG_OF_PERICENTER":93.4679,"MEAN_ANOMALY":266.666,"EPHEMERIS_TYPE":0,"CLASSIFICATION_TYPE":"U","NORAD_CAT_ID":55827,"ELEMENT_SET_NO":999,"REV_AT_EPOCH":12392,"BSTAR":0.00030195389,"MEAN_MOTION_DOT":1.36e-6,"MEAN_MOTION_DDOT":0},{"OBJECT_NAME":"ONEWEB-0669","OBJECT_ID":"2023-029AJ","EPOCH":"2025-09-08T04:58:31.833696","MEAN_MOTION":13.20771545,"ECCENTRICITY":0.00026244,"INCLINATION":87.929,"RA_OF_ASC_NODE":330.6677,"ARG_OF_PERICENTER":94.9737,"MEAN_ANOMALY":265.1696,"EPHEMERIS_TYPE":0,"CLASSIFICATION_TYPE":"U","NORAD_CAT_ID":55828,"ELEMENT_SET_NO":999,"REV_AT_EPOCH":12392,"BSTAR":-0.00058341645,"MEAN_MOTION_DOT":-2.24e-6,"MEAN_MOTION_DDOT":0},{"OBJECT_NAME":"ONEWEB-0670","OBJECT_ID":"2023-029AK","EPOCH":"2025-09-08T06:31:42.482208","MEAN_MOTION":13.14502889,"ECCENTRICITY":0.00018707,"INCLINATION":87.9097,"RA_OF_ASC_NODE":345.8772,"ARG_OF_PERICENTER":87.2433,"MEAN_ANOMALY":272.8911,"EPHEMERIS_TYPE":0,"CLASSIFICATION_TYPE":"U","NORAD_CAT_ID":55829,"ELEMENT_SET_NO":999,"REV_AT_EPOCH":12239,"BSTAR":0.00022731772,"MEAN_MOTION_DOT":9.7e-7,"MEAN_MOTION_DDOT":0},{"OBJECT_NAME":"ONEWEB-0671","OBJECT_ID":"2023-029AL","EPOCH":"2025-09-08T06:03:34.066368","MEAN_MOTION":13.19723874,"ECCENTRICITY":0.00017377,"INCLINATION":87.9279,"RA_OF_ASC_NODE":1.0424,"ARG_OF_PERICENTER":93.3864,"MEAN_ANOMALY":266.7467,"EPHEMERIS_TYPE":0,"CLASSIFICATION_TYPE":"U","NORAD_CAT_ID":55830,"ELEMENT_SET_NO":999,"REV_AT_EPOCH":12171,"BSTAR":0.00025224117,"MEAN_MOTION_DOT":1.14e-6,"MEAN_MOTION_DDOT":0},{"OBJECT_NAME":"ONEWEB-0672","OBJECT_ID":"2023-029AM","EPOCH":"2025-09-08T06:40:48.906912","MEAN_MOTION":13.20773559,"ECCENTRICITY":0.0002176,"INCLINATION":87.9285,"RA_OF_ASC_NODE":330.6372,"ARG_OF_PERICENTER":103.2342,"MEAN_ANOMALY":256.9034,"EPHEMERIS_TYPE":0,"CLASSIFICATION_TYPE":"U","NORAD_CAT_ID":55831,"ELEMENT_SET_NO":999,"REV_AT_EPOCH":12393,"BSTAR":-1.472425e-6,"MEAN_MOTION_DOT":1.2e-7,"MEAN_MOTION_DDOT":0},{"OBJECT_NAME":"ONEWEB-0673","OBJECT_ID":"2023-029AN","EPOCH":"2025-09-08T05:29:26.938464","MEAN_MOTION":13.19724969,"ECCENTRICITY":0.0001601,"INCLINATION":87.929,"RA_OF_ASC_NODE":1.0134,"ARG_OF_PERICENTER":100.6081,"MEAN_ANOMALY":259.5232,"EPHEMERIS_TYPE":0,"CLASSIFICATION_TYPE":"U","NORAD_CAT_ID":55832,"ELEMENT_SET_NO":999,"REV_AT_EPOCH":12171,"BSTAR":0.00015394872,"MEAN_MOTION_DOT":7.5e-7,"MEAN_MOTION_DDOT":0},{"OBJECT_NAME":"ONEWEB-0674","OBJECT_ID":"2023-029AP","EPOCH":"2025-09-08T05:46:01.552800","MEAN_MOTION":13.14505128,"ECCENTRICITY":0.0002002,"INCLINATION":87.9093,"RA_OF_ASC_NODE":345.8667,"ARG_OF_PERICENTER":85.9826,"MEAN_ANOMALY":274.1533,"EPHEMERIS_TYPE":0,"CLASSIFICATION_TYPE":"U","NORAD_CAT_ID":55833,"ELEMENT_SET_NO":999,"REV_AT_EPOCH":12237,"BSTAR":0.00044688561,"MEAN_MOTION_DOT":1.78e-6,"MEAN_MOTION_DDOT":0},{"OBJECT_NAME":"ONEWEB-0675","OBJECT_ID":"2023-029AQ","EPOCH":"2025-09-08T05:52:11.661024","MEAN_MOTION":13.19724843,"ECCENTRICITY":0.00018585,"INCLINATION":87.9279,"RA_OF_ASC_NODE":1.0549,"ARG_OF_PERICENTER":109.8511,"MEAN_ANOMALY":250.2822,"EPHEMERIS_TYPE":0,"CLASSIFICATION_TYPE":"U","NORAD_CAT_ID":55834,"ELEMENT_SET_NO":999,"REV_AT_EPOCH":12173,"BSTAR":0.00030031764,"MEAN_MOTION_DOT":1.33e-6,"MEAN_MOTION_DDOT":0},{"OBJECT_NAME":"ONEWEB-0720","OBJECT_ID":"2023-029AR","EPOCH":"2025-09-08T05:40:50.180160","MEAN_MOTION":13.19726172,"ECCENTRICITY":0.0001421,"INCLINATION":87.9279,"RA_OF_ASC_NODE":1.0531,"ARG_OF_PERICENTER":93.7255,"MEAN_ANOMALY":266.404,"EPHEMERIS_TYPE":0,"CLASSIFICATION_TYPE":"U","NORAD_CAT_ID":55835,"ELEMENT_SET_NO":999,"REV_AT_EPOCH":12165,"BSTAR":0.00028772638,"MEAN_MOTION_DOT":1.28e-6,"MEAN_MOTION_DDOT":0},{"OBJECT_NAME":"ONEWEB-0537","OBJECT_ID":"2023-043A","EPOCH":"2025-09-08T04:04:37.228512","MEAN_MOTION":13.16595811,"ECCENTRICITY":0.00020112,"INCLINATION":87.9003,"RA_OF_ASC_NODE":284.9734,"ARG_OF_PERICENTER":98.9084,"MEAN_ANOMALY":261.2274,"EPHEMERIS_TYPE":0,"CLASSIFICATION_TYPE":"U","NORAD_CAT_ID":56046,"ELEMENT_SET_NO":999,"REV_AT_EPOCH":12185,"BSTAR":-0.00015850086,"MEAN_MOTION_DOT":-4.8e-7,"MEAN_MOTION_DDOT":0},{"OBJECT_NAME":"ONEWEB-0538","OBJECT_ID":"2023-043B","EPOCH":"2025-09-08T03:55:30.919584","MEAN_MOTION":13.16594568,"ECCENTRICITY":0.00017263,"INCLINATION":87.8993,"RA_OF_ASC_NODE":284.9871,"ARG_OF_PERICENTER":101.3809,"MEAN_ANOMALY":258.7516,"EPHEMERIS_TYPE":0,"CLASSIFICATION_TYPE":"U","NORAD_CAT_ID":56047,"ELEMENT_SET_NO":999,"REV_AT_EPOCH":12186,"BSTAR":0.00012946608,"MEAN_MOTION_DOT":6.2e-7,"MEAN_MOTION_DDOT":0}]
